{
  "norad_id": 68512,
  "name": "STARLINK-37286",
  "history": [
    {
      "epoch": "2026-04-07T05:57:13.418208Z",
      "apogee_km": 300.530235400508,
      "perigee_km": 297.8926827591713,
      "latitude_deg": 1.9118126682295133e-05,
      "longitude_deg": 81.43360739218286,
      "height_km": 300.7909763697119,
      "semi_major_axis_km": 6677.348459079839,
      "eccentricity": 0.0001975,
      "inclination_deg": 53.1616,
      "raan_deg": 6.2672,
      "arg_perigee_deg": 240.2606,
      "mean_anomaly_deg": 119.8225,
      "mean_motion_rev_day": 15.91097162
    }
  ]
}