{"fetched_at":"2026-04-08T17:04:03Z","count":12288,"tles":[{"name":"STARLINK-37286","line1":"1 68512U 26068E   26097.24807197 -.00609643  12526-3 -18697-2 0  9998","line2":"2 68512  53.1616   6.2672 0001975 240.2606 119.8225 15.91097162  1180","category":"Starlink"}]}